algorithm,apogee,argOfPerigee,bStar,classificationMarking,elset_created_at,elset_created_by,dataMode,eccentricity,idElset,idOnOrbit,inclination,line1,line2,meanAnomaly,meanMotion,meanMotionDDot,meanMotionDot,origNetwork,perigee,period,raan,revNo,satNo,semiMajorAxis,source,__START_AT,__END_AT,COUNTRY,LAUNCH,LAUNCH_NUM,LAUNCH_PIECE,NORAD_CAT_ID,OBJECT_ID,OBJECT_NAME,OBJECT_NUMBER,OBJECT_TYPE,RCS_SIZE,SATNAME,SITE,satcat_current_fetch_date
SGP4,6926.338,66.2956,6.4959E-5,U,2024-02-01T05:05:14.193Z,system.ob-ingest,REAL,1.412E-4,54ed9a19-d931-44d9-a725-699fc85ea48d,48382,53.0535,1 48382U 21038AF  24031.89200521 +.00000686 +00000+0 +64959-4 0 99991,2 48382  53.0535 198.4029 0001412  66.2956 293.8181 15.06396284151444,293.8181,15.06396284,0.0,6.86E-6,OPS1,6924.382,95.592,198.4029,15144,48382,6925.36,18th SPCS,2024-01-31T21:24:29.250144Z,2024-02-01T19:42:02.097504Z,US,2021-05-04,38,AF,48382,2021-038AF,STARLINK-2585,48382,PAYLOAD,LARGE,STARLINK-2585,AFETR,2024-08-21
SGP4,6926.336,78.463,-2.8819E-4,U,2024-01-31T07:05:13.559Z,system.ob-ingest,REAL,1.386E-4,297564fc-531f-43be-95ba-9248272b7877,48647,53.0557,1 48647U 21044K   24031.13547446 -.00004570 +00000+0 -28819-3 0 99991,2 48647  53.0557 331.7962 0001386  78.4630 281.6514 15.06390926148778,281.6514,15.06390926,0.0,-4.57E-5,OPS1,6924.417,95.593,331.7962,14877,48647,6925.376,18th SPCS,2024-01-31T03:15:04.993344Z,2024-02-01T01:32:38.054112Z,US,2021-05-26,44,K,48647,2021-044K,STARLINK-2691,48647,PAYLOAD,LARGE,STARLINK-2691,AFETR,2024-08-21
SGP4,6952.052,266.311,-5.6967E-6,U,2024-01-31T23:05:16.399Z,system.ob-ingest,REAL,2.687E-4,8e6881e1-f3b0-4dd3-9167-5f4e89e4e6c6,49178,69.9999,1 49178U 21082BA  24031.47777280 -.00000161 +00000+0 -56967-5 0 99990,2 49178  69.9999  71.3798 0002687 266.3110  93.7742 14.98332642132065,93.7742,14.98332642,0.0,-1.61E-6,OPS1,6948.317,96.107,71.3798,13206,49178,6950.185,18th SPCS,2024-01-31T11:27:59.569920Z,2024-02-01T03:29:20.266944Z,US,2021-09-14,82,BA,49178,2021-082BA,STARLINK-3086,49178,PAYLOAD,LARGE,STARLINK-3086,AFWTR,2024-08-21
SGP4,6919.162,113.4997,-3.6209E-5,U,2024-01-31T23:05:16.468Z,system.ob-ingest,REAL,1.903E-4,b6f0a4d3-fb50-4ff3-a737-88a73ad27c01,49412,53.2175,1 49412U 21104E   24031.53685019 -.00000865 +00000+0 -36209-4 0 99998,2 49412  53.2175  77.4925 0001903 113.4997 246.6195 15.08851562122678,246.6195,15.08851562,0.0,-8.65E-6,OPS1,6916.529,95.437,77.4925,12267,49412,6917.845,18th SPCS,2024-01-31T12:53:03.856416Z,2024-02-01T09:33:06.031872Z,US,2021-11-13,104,E,49412,2021-104E,STARLINK-3144,49412,PAYLOAD,LARGE,STARLINK-3144,AFETR,2024-08-21
SGP4,6919.0,77.5276,6.6676E-5,U,2024-01-31T15:05:13.752Z,system.ob-ingest,REAL,1.643E-4,4c2859fa-721c-4a54-a8d7-59e57b6ad755,49430,53.2177,1 49430U 21104Y   24031.50840379 +.00000773 +00000+0 +66676-4 0 99994,2 49430  53.2177  77.9006 0001643  77.5276 282.5900 15.08845546123732,282.59,15.08845546,0.0,7.73E-6,OPS1,6916.727,95.437,77.9006,12373,49430,6917.863,18th SPCS,2024-01-31T12:12:06.087456Z,2024-02-01T08:52:07.851648Z,US,2021-11-13,104,Y,49430,2021-104Y,STARLINK-3138,49430,PAYLOAD,LARGE,STARLINK-3138,AFETR,2024-08-21
SGP4,6919.042,79.9945,-3.5901E-5,U,2024-01-31T23:05:16.523Z,system.ob-ingest,REAL,1.712E-4,491ba4b9-e557-4b1b-90fe-ac52c34ed98e,50172,53.2184,1 50172U 21125S   24031.57549501 -.00000860 +00000+0 -35901-4 0 99998,2 50172  53.2184  97.3124 0001712  79.9945 280.1240 15.08847514120159,280.124,15.08847514,0.0,-8.6E-6,OPS1,6916.673,95.437,97.3124,12015,50172,6917.857,18th SPCS,2024-01-31T13:48:42.768864Z,2024-02-01T10:28:43.651776Z,US,2021-12-18,125,S,50172,2021-125S,STARLINK-3287,50172,PAYLOAD,LARGE,STARLINK-3287,AFWTR,2024-08-21
SGP4,6919.102,99.6042,-1.2815E-4,U,2024-01-31T23:05:16.743Z,system.ob-ingest,REAL,1.757E-4,df85f54f-10f6-46fd-8b35-cbe0d6fbf5c2,50838,53.22,1 50838U 22001AM  24031.25775133 -.00002327 +00000+0 -12815-3 0 99996,2 50838  53.2200  24.2812 0001757  99.6042 260.5149 15.08837978114321,260.5149,15.08837978,0.0,-2.327E-5,OPS1,6916.671,95.438,24.2812,11432,50838,6917.887,18th SPCS,2024-01-31T06:11:09.714912Z,2024-02-01T02:51:09.947232Z,US,2022-01-06,1,AM,50838,2022-001AM,STARLINK-3322,50838,PAYLOAD,LARGE,STARLINK-3322,AFETR,2024-08-21
SGP4,6918.947,97.6683,-4.4623E-4,U,2024-02-01T07:05:14.554Z,system.ob-ingest,REAL,1.698E-4,78565389-ff8f-4fec-a73e-3797570ac873,52139,53.218,1 52139U 22029BD  24031.98488597 -.00007390 +00000+0 -44623-3 0 99994,2 52139  53.2180 285.4821 0001698  97.6683 262.4502 15.08875208104891,262.4502,15.08875208,0.0,-7.39E-5,OPS1,6916.598,95.435,285.4821,10489,52139,6917.773,18th SPCS,2024-01-31T23:38:14.147808Z,2024-02-02T20:09:03.260448Z,US,2022-03-19,29,BD,52139,2022-029BD,STARLINK-3730,52139,PAYLOAD,LARGE,STARLINK-3730,AFETR,2024-08-21
SGP4,6919.174,75.5187,-1.1019E-4,U,2024-01-31T15:05:13.637Z,system.ob-ingest,REAL,1.819E-4,04dc076c-4fe5-4917-b849-ba57e96d767f,52333,53.2179,1 52333U 22045C   24031.33631732 -.00002041 +00000+0 -11019-3 0 99999,2 52333  53.2179  58.3968 0001819  75.5187 284.6006 15.08828386099638,284.6006,15.08828386,0.0,-2.041E-5,OPS1,6916.658,95.438,58.3968,9963,52333,6917.916,18th SPCS,2024-01-31T08:04:17.816448Z,2024-02-01T01:33:31.842432Z,US,2022-04-29,45,C,52333,2022-045C,STARLINK-3847,52333,PAYLOAD,LARGE,STARLINK-3847,AFETR,2024-08-21
SGP4,6918.914,102.9601,3.1404E-5,U,2024-02-01T16:05:21.154Z,system.ob-ingest,REAL,1.44E-4,f7510bb9-3b78-4215-94c4-15da08f0e012,52453,53.2172,1 52453U 22049C   24031.98214529 +.00000212 +00000+0 +31404-4 0 99995,2 52453  53.2172 275.4986 0001440 102.9601 257.1552 15.08827847096372,257.1552,15.08827847,0.0,2.12E-6,OPS1,6916.921,95.438,275.4986,9637,52453,6917.918,18th SPCS,2024-01-31T23:34:17.353056Z,2024-02-01T23:25:03.782208Z,US,2022-05-06,49,C,52453,2022-049C,STARLINK-3872,52453,PAYLOAD,LARGE,STARLINK-3872,AFETR,2024-08-21
SGP4,6918.92,94.5126,-2.4719E-5,U,2024-01-31T23:05:16.444Z,system.ob-ingest,REAL,1.493E-4,26549c0d-ef1a-4bd3-8519-bda84529f108,52458,53.2169,1 52458U 22049H   24031.70341508 -.00000681 +00000+0 -24719-4 0 99991,2 52458  53.2169 276.7463 0001493  94.5126 265.6037 15.08837897096337,265.6037,15.08837897,0.0,-6.81E-6,OPS1,6916.854,95.438,276.7463,9633,52458,6917.887,18th SPCS,2024-01-31T16:52:55.062912Z,2024-02-01T19:54:28.550304Z,US,2022-05-06,49,H,52458,2022-049H,STARLINK-3898,52458,PAYLOAD,LARGE,STARLINK-3898,AFETR,2024-08-21
SGP4,6918.685,114.5721,1.2902E-4,U,2024-01-31T23:05:16.571Z,system.ob-ingest,REAL,1.196E-4,a205aaaf-da40-4b1c-bc91-f549b5fb9ab2,52480,53.2164,1 52480U 22049AF  24031.64081846 +.00001766 +00000+0 +12902-3 0 99998,2 52480  53.2164 267.0277 0001196 114.5721 245.5396 15.08847456096468,245.5396,15.08847456,0.0,1.766E-5,OPS1,6917.03,95.437,267.0277,9646,52480,6917.858,18th SPCS,2024-01-31T15:22:46.714944Z,2024-02-01T00:55:08.064192Z,US,2022-05-06,49,AF,52480,2022-049AF,STARLINK-3839,52480,PAYLOAD,LARGE,STARLINK-3839,AFETR,2024-08-21
SGP4,6918.766,81.7292,6.0445E-5,U,2024-01-31T23:05:16.603Z,system.ob-ingest,REAL,1.239E-4,8c48ccaa-e006-4e03-9747-e8c6afcb9bea,52489,53.2166,1 52489U 22049AQ  24031.63346249 +.00000674 +00000+0 +60445-4 0 99990,2 52489  53.2166 267.0613 0001239  81.7292 278.3841 15.08830613096465,278.3841,15.08830613,0.0,6.74E-6,OPS1,6917.052,95.438,267.0613,9646,52489,6917.909,18th SPCS,2024-01-31T15:12:11.159136Z,2024-02-01T00:44:29.702976Z,US,2022-05-06,49,AQ,52489,2022-049AQ,STARLINK-3923,52489,PAYLOAD,LARGE,STARLINK-3923,AFETR,2024-08-21
SGP4,6919.026,81.0723,2.8849E-4,U,2024-01-31T23:05:16.444Z,system.ob-ingest,REAL,1.603E-4,30422639-d29c-4556-a637-85143862183e,52609,53.2174,1 52609U 22052M   24031.51385051 +.00004305 +00000+0 +28849-3 0 99995,2 52609  53.2174 127.5453 0001603  81.0723 279.0450 15.08828053094891,279.045,15.08828053,0.0,4.305E-5,OPS1,6916.808,95.438,127.5453,9489,52609,6917.917,18th SPCS,2024-01-31T12:19:56.684064Z,2024-02-01T10:35:21.328512Z,US,2022-05-14,52,M,52609,2022-052M,STARLINK-3997,52609,PAYLOAD,LARGE,STARLINK-3997,AFETR,2024-08-21
SGP4,6919.092,91.9537,1.6873E-5,U,2024-01-31T23:05:16.602Z,system.ob-ingest,REAL,1.796E-4,6446dd6e-7d5b-4c85-8a76-931541d9e233,52648,53.2195,1 52648U 22052BC  24031.60033340 -.00000020 +00000+0 +16873-4 0 99995,2 52648  53.2195 107.2025 0001796  91.9537 268.1661 15.08850002095177,268.1661,15.08850002,0.0,-2.0E-7,OPS1,6916.607,95.437,107.2025,9517,52648,6917.85,18th SPCS,2024-01-31T14:24:28.805760Z,2024-02-01T11:04:29.767296Z,US,2022-05-14,52,BC,52648,2022-052BC,STARLINK-3854,52648,PAYLOAD,LARGE,STARLINK-3854,AFETR,2024-08-21
SGP4,6919.145,116.5589,-5.6072E-5,U,2024-01-31T07:05:13.907Z,system.ob-ingest,REAL,1.839E-4,72413e2a-faae-4310-a002-a5c8df125339,52695,53.2194,1 52695U 22053AR  24031.17251247 -.00001180 +00000+0 -56072-4 0 99992,2 52695  53.2194 358.9227 0001839 116.5589 243.5592 15.08842548094665,243.5592,15.08842548,0.0,-1.18E-5,OPS1,6916.6,95.437,358.9227,9466,52695,6917.873,18th SPCS,2024-01-31T04:08:25.077408Z,2024-02-01T03:59:12.009408Z,US,2022-05-18,53,AR,52695,2022-053AR,STARLINK-4041,52695,PAYLOAD,LARGE,STARLINK-4041,AFETR,2024-08-21
SGP4,6918.899,94.1119,3.0E-5,U,2024-01-31T23:05:16.756Z,system.ob-ingest,REAL,1.484E-4,35831eeb-b754-4e21-870e-17337b7408f2,52696,53.2188,1 52696U 22053AS  24031.18955536 +.00000190 +00000+0 +30000-4 0 99997,2 52696  53.2188 354.0548 0001484  94.1119 266.0043 15.08842692095132,266.0043,15.08842692,0.0,1.9E-6,OPS1,6916.846,95.437,354.0548,9513,52696,6917.872,18th SPCS,2024-01-31T04:32:57.583104Z,2024-02-01T04:23:44.859840Z,US,2022-05-18,53,AS,52696,2022-053AS,STARLINK-4025,52696,PAYLOAD,LARGE,STARLINK-4025,AFETR,2024-08-21
